0 COSMOS 1842
1 17911U 87038A   13281.86222499  .00002713  00000-0  19208-3 0  3060
2 17911 082.4898 068.5146 0014310 149.9824 210.2225 15.04379289438654
0 COSMOS 1842
1 17911U 87038A   13283.12599543  .00003741  00000-0  26556-3 0  3075
2 17911 082.4897 067.2865 0014315 145.6190 214.5966 15.04389595438842
0 COSMOS 1842
1 17911U 87038A   13286.11910805  .00003971  00000-0  28188-3 0  3095
2 17911 082.4900 064.3773 0014254 136.8484 223.3862 15.04407727439294
0 COSMOS 1842
1 17911U 87038A   13287.44936823  .00004503  00000-0  31978-3 0  3105
2 17911 082.4909 063.0846 0014261 132.9186 227.3240 15.04415777439494
0 COSMOS 1842
1 17911U 87038A   13288.64659366  .00006070  00000-0  43159-3 0  3118
2 17911 082.4909 061.9213 0014250 128.9869 231.2629 15.04429018439678
0 COSMOS 1842
1 17911U 87038A   13289.84381024  .00005742  00000-0  40807-3 0  3127
2 17911 082.4918 060.7580 0014284 125.5493 234.7068 15.04439532439852
0 COSMOS 1842
1 17911U 87038A   13291.10752844  .00004975  00000-0  35321-3 0  3134
2 17911 082.4926 059.5305 0014303 121.9443 238.3176 15.04452293440041
0 COSMOS 1842
1 17911U 87038A   13292.50425861  .00004407  00000-0  31254-3 0  3147
2 17911 082.4933 058.1737 0014340 117.8090 242.4592 15.04464613440256
0 COSMOS 1842
1 17911U 87038A   13293.83446761  .00004387  00000-0  31099-3 0  3151
2 17911 082.4935 056.8815 0014423 113.8273 246.4467 15.04474334440459
0 COSMOS 1842
1 17911U 87038A   13295.16466681  .00004356  00000-0  30872-3 0  3167
2 17911 082.4933 055.5893 0014522 109.9428 250.3364 15.04483485440656
